1 25116U 97084E   19273.37974531  .00000091  00000-0  75012-4 0  9993
2 25116  45.0165 224.4488 0004365 150.5127 209.5969 14.38947028140594
1 25116U 97084E   19273.93516797 +.00000099 +00000-0 +77608-4 0  9992
2 25116 045.0165 221.8119 0004406 153.5224 206.5851 14.38947300140649
1 25116U 97084E   19274.90715726 +.00000112 +00000-0 +81784-4 0  9999
2 25116 045.0166 217.1975 0004480 158.5935 201.5102 14.38947845140787
1 25116U 97084E   19275.04601286  .00000111  00000-0  81692-4 0  9997
2 25116  45.0166 216.5383 0004493 159.2848 200.8184 14.38947915140834
1 25116U 97084E   19275.25429626 +.00000113 +00000-0 +82098-4 0  9999
2 25116 045.0166 215.5496 0004508 160.2822 199.8202 14.38948021140836
1 25116U 97084E   19276.29571286  .00000110  00000-0  81314-4 0  9991
2 25116  45.0167 210.6057 0004586 165.5027 194.5954 14.38948557141018
1 25116U 97084E   19276.85113484 +.00000111 +00000-0 +81728-4 0  9995
2 25116 045.0167 207.9689 0004630 168.3519 191.7437 14.38948850141061
1 25116U 97084E   19277.82312320  .00000108  00000-0  80710-4 0  9999
2 25116  45.0168 203.3547 0004705 173.0888 187.0026 14.38949292141232
1 25116U 97084E   19278.86453881 +.00000111 +00000-0 +81707-4 0  9993
2 25116 045.0169 198.4109 0004789 178.1370 181.9497 14.38949831141352
1 25116U 97084E   19279.14224961  .00000112  00000-0  81771-4 0  9992
2 25116  45.0168 197.0927 0004811 179.4452 180.6402 14.38949964141422
1 25116U 97084E   19279.83652634 +.00000107 +00000-0 +80365-4 0  9992
2 25116 045.0168 193.7967 0004868 182.7584 177.3238 14.38950313141491
1 25116U 97084E   19280.25309227  .00000111  00000-0  81688-4 0  9991
2 25116  45.0168 191.8193 0004899 184.6642 175.4162 14.38950581141583
1 25116U 97084E   19280.87794105 +.00000102 +00000-0 +78675-4 0  9994
2 25116 045.0168 188.8529 0004955 187.6337 172.4437 14.38950889141649
1 25116U 97084E   19281.22507918 +.00000107 +00000-0 +80320-4 0  9993
2 25116 045.0168 187.2051 0004978 189.2111 170.8647 14.38951120141694
1 25116U 97084E   19282.12763818  .00000111  00000-0  81637-4 0  9993
2 25116  45.0167 182.9204 0005051 193.3778 166.6938 14.38951635141858
1 25116U 97084E   19282.89134180 +.00000110 +00000-0 +81251-4 0  9992
2 25116 045.0167 179.2949 0005111 196.8249 163.2431 14.38952004141932
1 25116U 97084E   19283.16905223  .00000109  00000-0  80901-4 0  9996
2 25116  45.0166 177.9766 0005129 198.1242 161.9425 14.38952104142008
1 25116U 97084E   19283.86332805 +.00000113 +00000-0 +82222-4 0  9996
2 25116 045.0166 174.6806 0005184 201.2534 158.8100 14.38952425142076
1 25116U 97084E   19284.76588642  .00000122  00000-0  84956-4 0  9994
2 25116  45.0165 170.3959 0005249 205.2816 154.7777 14.38952853142234
1 25116U 97084E   19284.83531397 +.00000122 +00000-0 +85049-4 0  9991
2 25116 045.0165 170.0663 0005256 205.5752 154.4837 14.38952888142213
